[{
  "id": 1,
  "location_name": "lacinia sapien",
  "longitude": -73.998672,
  "latitude": 40.714728,
  "hours": "10:50 PM",
  "phone": "8-(268)712-4634",
  "streetAddress": "0 Bellgrove Point",
  "city": "Midland",
  "state": "MI",
  "zip": 29301,
  "image": "restaurant.jpg"
}, {
  "id": 2,
  "location_name": "id mauris",
  "longitude": -79.991455,
  "latitude": 40.400686,
  "hours": "10:38 AM",
  "phone": "3-(038)566-1702",
  "streetAddress": "2 1st Parkway",
  "city": "Milwaukee",
  "state": "WI",
  "zip": 50881,
  "image": "restaurant.jpg"
}, {
  "id": 3,
  "location_name": "nunc rhoncus",
  "longitude": -94.603271,
  "latitude": 39.202196,
  "hours": "2:51 PM",
  "phone": "7-(444)588-7532",
  "streetAddress": "3 Sutherland Crossing",
  "city": "El Paso",
  "state": "TX",
  "zip": 55296,
  "image": "restaurant.jpg"
}, {
  "id": 4,
  "location_name": "ipsum primis",
  "longitude": -120.489807,
  "latitude": 46.597503,
  "hours": "10:57 AM",
  "phone": "0-(216)559-1375",
  "streetAddress": "97710 Hollow Ridge Court",
  "city": "Saint Louis",
  "state": "MO",
  "zip": 78103,
  "image": "restaurant.jpg"
}, {
  "id": 5,
  "location_name": "fusce posuere",
  "longitude": -100.783081,
  "latitude": 46.786779,
  "hours": "6:20 AM",
  "phone": "9-(006)798-9476",
  "streetAddress": "64 Towne Pass",
  "city": "Tampa",
  "state": "FL",
  "zip": 86651,
  "image": "restaurant.jpg"
}, {
  "id": 6,
  "location_name": "rutrum ac",
  "longitude": -122.145996,
  "latitude": 37.865639,
  "hours": "1:33 PM",
  "phone": "7-(134)203-4172",
  "streetAddress": "933 Green Junction",
  "city": "Iowa City",
  "state": "IA",
  "zip": 21967,
  "image": "restaurant.jpg"
}, {
  "id": 7,
  "location_name": "curae mauris",
  "longitude": -119.805908,
  "latitude": 39.541911,
  "hours": "6:02 AM",
  "phone": "0-(650)651-3041",
  "streetAddress": "601 Russell Crossing",
  "city": "Jefferson City",
  "state": "MO",
  "zip": 83954,
  "image": "restaurant.jpg"
}, {
  "id": 8,
  "location_name": "mi pede",
  "longitude": -118.267822,
  "latitude": 34.075128,
  "hours": "1:52 AM",
  "phone": "7-(820)418-7710",
  "streetAddress": "182 North Street",
  "city": "Sacramento",
  "state": "CA",
  "zip": 54637,
  "image": "restaurant.jpg"
}, {
  "id": 9,
  "location_name": "vel enim",
  "longitude": -92.867432,
  "latitude": 38.190434,
  "hours": "3:24 PM",
  "phone": "0-(839)330-6971",
  "streetAddress": "038 Anhalt Park",
  "city": "Rockford",
  "state": "IL",
  "zip": 17097,
  "image": "restaurant.jpg"
}, {
  "id": 10,
  "location_name": "ultrices enim",
  "longitude": -92.345581,
  "latitude": 34.626287,
  "hours": "6:51 AM",
  "phone": "0-(231)532-9920",
  "streetAddress": "5 Sachtjen Lane",
  "city": "Shawnee Mission",
  "state": "KS",
  "zip": 70202,
  "image": "restaurant.jpg"
}]